<?xml version="1.0" encoding="UTF-8"?>
<ndm xmlns:xsi="http://www.w3.org/2001/XMLSchema-instance" xsi:noNamespaceSchemaLocation="https://sanaregistry.org/r/ndmxml_unqualified/ndmxml-2.0.0-master-2.0.xsd">
<omm id="CCSDS_OMM_VERS" version="2.0">
<header><CREATION_DATE/><ORIGINATOR/></header><body><segment><metadata><OBJECT_NAME>ORBCOMM FM37</OBJECT_NAME><OBJECT_ID>2008-031E</OBJECT_ID><CENTER_NAME>EARTH</CENTER_NAME><REF_FRAME>TEME</REF_FRAME><TIME_SYSTEM>UTC</TIME_SYSTEM><MEAN_ELEMENT_THEORY>SGP4</MEAN_ELEMENT_THEORY></metadata><data><meanElements><EPOCH>2024-05-22T03:05:28.180896</EPOCH><MEAN_MOTION>14.76527521</MEAN_MOTION><ECCENTRICITY>.0005747</ECCENTRICITY><INCLINATION>48.4413</INCLINATION><RA_OF_ASC_NODE>38.2044</RA_OF_ASC_NODE><ARG_OF_PERICENTER>145.0537</ARG_OF_PERICENTER><MEAN_ANOMALY>8.0178</MEAN_ANOMALY></meanElements><tleParameters><EPHEMERIS_TYPE>0</EPHEMERIS_TYPE><CLASSIFICATION_TYPE>U</CLASSIFICATION_TYPE><NORAD_CAT_ID>33064</NORAD_CAT_ID><ELEMENT_SET_NO>999</ELEMENT_SET_NO><REV_AT_EPOCH>85651</REV_AT_EPOCH><BSTAR>.5244E-3</BSTAR><MEAN_MOTION_DOT>.349E-4</MEAN_MOTION_DOT><MEAN_MOTION_DDOT>0</MEAN_MOTION_DDOT></tleParameters></data></segment></body></omm>
<omm id="CCSDS_OMM_VERS" version="2.0">
<header><CREATION_DATE/><ORIGINATOR/></header><body><segment><metadata><OBJECT_NAME>ORBCOMM FM40</OBJECT_NAME><OBJECT_ID>2008-031F</OBJECT_ID><CENTER_NAME>EARTH</CENTER_NAME><REF_FRAME>TEME</REF_FRAME><TIME_SYSTEM>UTC</TIME_SYSTEM><MEAN_ELEMENT_THEORY>SGP4</MEAN_ELEMENT_THEORY></metadata><data><meanElements><EPOCH>2024-05-21T15:04:54.352704</EPOCH><MEAN_MOTION>14.77862630</MEAN_MOTION><ECCENTRICITY>.0007129</ECCENTRICITY><INCLINATION>48.4437</INCLINATION><RA_OF_ASC_NODE>29.8368</RA_OF_ASC_NODE><ARG_OF_PERICENTER>151.5372</ARG_OF_PERICENTER><MEAN_ANOMALY>292.3395</MEAN_ANOMALY></meanElements><tleParameters><EPHEMERIS_TYPE>0</EPHEMERIS_TYPE><CLASSIFICATION_TYPE>U</CLASSIFICATION_TYPE><NORAD_CAT_ID>33065</NORAD_CAT_ID><ELEMENT_SET_NO>999</ELEMENT_SET_NO><REV_AT_EPOCH>85616</REV_AT_EPOCH><BSTAR>.66691E-3</BSTAR><MEAN_MOTION_DOT>.4643E-4</MEAN_MOTION_DOT><MEAN_MOTION_DDOT>0</MEAN_MOTION_DDOT></tleParameters></data></segment></body></omm>
<omm id="CCSDS_OMM_VERS" version="2.0">
<header><CREATION_DATE/><ORIGINATOR/></header><body><segment><metadata><OBJECT_NAME>ORBCOMM FM109</OBJECT_NAME><OBJECT_ID>2014-040A</OBJECT_ID><CENTER_NAME>EARTH</CENTER_NAME><REF_FRAME>TEME</REF_FRAME><TIME_SYSTEM>UTC</TIME_SYSTEM><MEAN_ELEMENT_THEORY>SGP4</MEAN_ELEMENT_THEORY></metadata><data><meanElements><EPOCH>2024-05-22T04:01:29.558208</EPOCH><MEAN_MOTION>14.56657852</MEAN_MOTION><ECCENTRICITY>.0002424</ECCENTRICITY><INCLINATION>47.0037</INCLINATION><RA_OF_ASC_NODE>60.9713</RA_OF_ASC_NODE><ARG_OF_PERICENTER>311.8042</ARG_OF_PERICENTER><MEAN_ANOMALY>48.2636</MEAN_ANOMALY></meanElements><tleParameters><EPHEMERIS_TYPE>0</EPHEMERIS_TYPE><CLASSIFICATION_TYPE>U</CLASSIFICATION_TYPE><NORAD_CAT_ID>40086</NORAD_CAT_ID><ELEMENT_SET_NO>999</ELEMENT_SET_NO><REV_AT_EPOCH>52414</REV_AT_EPOCH><BSTAR>.48557E-3</BSTAR><MEAN_MOTION_DOT>.202E-4</MEAN_MOTION_DOT><MEAN_MOTION_DDOT>0</MEAN_MOTION_DDOT></tleParameters></data></segment></body></omm>
<omm id="CCSDS_OMM_VERS" version="2.0">
<header><CREATION_DATE/><ORIGINATOR/></header><body><segment><metadata><OBJECT_NAME>ORBCOMM FM107</OBJECT_NAME><OBJECT_ID>2014-040B</OBJECT_ID><CENTER_NAME>EARTH</CENTER_NAME><REF_FRAME>TEME</REF_FRAME><TIME_SYSTEM>UTC</TIME_SYSTEM><MEAN_ELEMENT_THEORY>SGP4</MEAN_ELEMENT_THEORY></metadata><data><meanElements><EPOCH>2024-05-21T20:36:50.526432</EPOCH><MEAN_MOTION>14.56667958</MEAN_MOTION><ECCENTRICITY>.0001978</ECCENTRICITY><INCLINATION>47.0053</INCLINATION><RA_OF_ASC_NODE>63.3930</RA_OF_ASC_NODE><ARG_OF_PERICENTER>284.1239</ARG_OF_PERICENTER><MEAN_ANOMALY>75.9426</MEAN_ANOMALY></meanElements><tleParameters><EPHEMERIS_TYPE>0</EPHEMERIS_TYPE><CLASSIFICATION_TYPE>U</CLASSIFICATION_TYPE><NORAD_CAT_ID>40087</NORAD_CAT_ID><ELEMENT_SET_NO>999</ELEMENT_SET_NO><REV_AT_EPOCH>52405</REV_AT_EPOCH><BSTAR>.53469E-3</BSTAR><MEAN_MOTION_DOT>.2243E-4</MEAN_MOTION_DOT><MEAN_MOTION_DDOT>0</MEAN_MOTION_DDOT></tleParameters></data></segment></body></omm>
<omm id="CCSDS_OMM_VERS" version="2.0">
<header><CREATION_DATE/><ORIGINATOR/></header><body><segment><metadata><OBJECT_NAME>ORBCOMM FM111</OBJECT_NAME><OBJECT_ID>2014-040D</OBJECT_ID><CENTER_NAME>EARTH</CENTER_NAME><REF_FRAME>TEME</REF_FRAME><TIME_SYSTEM>UTC</TIME_SYSTEM><MEAN_ELEMENT_THEORY>SGP4</MEAN_ELEMENT_THEORY></metadata><data><meanElements><EPOCH>2024-05-21T03:32:50.637984</EPOCH><MEAN_MOTION>14.81878165</MEAN_MOTION><ECCENTRICITY>.0031809</ECCENTRICITY><INCLINATION>47.0020</INCLINATION><RA_OF_ASC_NODE>178.8418</RA_OF_ASC_NODE><ARG_OF_PERICENTER>120.7503</ARG_OF_PERICENTER><MEAN_ANOMALY>239.6531</MEAN_ANOMALY></meanElements><tleParameters><EPHEMERIS_TYPE>0</EPHEMERIS_TYPE><CLASSIFICATION_TYPE>U</CLASSIFICATION_TYPE><NORAD_CAT_ID>40089</NORAD_CAT_ID><ELEMENT_SET_NO>999</ELEMENT_SET_NO><REV_AT_EPOCH>53199</REV_AT_EPOCH><BSTAR>.35817E-3</BSTAR><MEAN_MOTION_DOT>.2677E-4</MEAN_MOTION_DOT><MEAN_MOTION_DDOT>0</MEAN_MOTION_DDOT></tleParameters></data></segment></body></omm>
<omm id="CCSDS_OMM_VERS" version="2.0">
<header><CREATION_DATE/><ORIGINATOR/></header><body><segment><metadata><OBJECT_NAME>ORBCOMM FM104</OBJECT_NAME><OBJECT_ID>2014-040E</OBJECT_ID><CENTER_NAME>EARTH</CENTER_NAME><REF_FRAME>TEME</REF_FRAME><TIME_SYSTEM>UTC</TIME_SYSTEM><MEAN_ELEMENT_THEORY>SGP4</MEAN_ELEMENT_THEORY></metadata><data><meanElements><EPOCH>2024-05-21T23:29:24.203040</EPOCH><MEAN_MOTION>14.55170864</MEAN_MOTION><ECCENTRICITY>.0017261</ECCENTRICITY><INCLINATION>47.0042</INCLINATION><RA_OF_ASC_NODE>91.8674</RA_OF_ASC_NODE><ARG_OF_PERICENTER>220.5556</ARG_OF_PERICENTER><MEAN_ANOMALY>139.4043</MEAN_ANOMALY></meanElements><tleParameters><EPHEMERIS_TYPE>0</EPHEMERIS_TYPE><CLASSIFICATION_TYPE>U</CLASSIFICATION_TYPE><NORAD_CAT_ID>40090</NORAD_CAT_ID><ELEMENT_SET_NO>999</ELEMENT_SET_NO><REV_AT_EPOCH>52371</REV_AT_EPOCH><BSTAR>.40822E-3</BSTAR><MEAN_MOTION_DOT>.1617E-4</MEAN_MOTION_DOT><MEAN_MOTION_DDOT>0</MEAN_MOTION_DDOT></tleParameters></data></segment></body></omm>

</ndm>
