ORBCOMM FM37            
1 33064U 08031E   24143.12879839  .00003490  00000+0  52440-3 0  9992
2 33064  48.4413  38.2044 0005747 145.0537   8.0178 14.76527521856510
ORBCOMM FM40            
1 33065U 08031F   24142.62840686  .00004643  00000+0  66691-3 0  9999
2 33065  48.4437  29.8368 0007129 151.5372 292.3395 14.77862630856161
ORBCOMM FM109           
1 40086U 14040A   24143.16770322  .00002020  00000+0  48557-3 0  9994
2 40086  47.0037  60.9713 0002424 311.8042  48.2636 14.56657852524142
ORBCOMM FM107           
1 40087U 14040B   24142.85891813  .00002243  00000+0  53469-3 0  9994
2 40087  47.0053  63.3930 0001978 284.1239  75.9426 14.56667958524054
ORBCOMM FM111           
1 40089U 14040D   24142.14780831  .00002677  00000+0  35817-3 0  9993
2 40089  47.0020 178.8418 0031809 120.7503 239.6531 14.81878165531997
ORBCOMM FM104           
1 40090U 14040E   24142.97875235  .00001617  00000+0  40822-3 0  9994
2 40090  47.0042  91.8674 0017261 220.5556 139.4043 14.55170864523712
